BEIDOU 3 (C01)          
1 36287U 10001A   22174.91693895 -.00000279  00000+0  00000+0 0  9991
2 36287   1.8942  48.3459 0004020  29.5968 304.5871  1.00274581 45577
BEIDOU 5 (C06)          
1 36828U 10036A   22175.01734028 -.00000035  00000+0  00000+0 0  9996
2 36828  54.1953 176.1662 0031010 190.5386  16.3713  1.00296913 43641
BEIDOU 6 (C04)          
1 37210U 10057A   22174.77956852 -.00000110  00000+0  00000+0 0  9992
2 37210   0.8597  47.8342 0003449 124.5514 180.1850  1.00270838 42697
BEIDOU 7 (C07)          
1 37256U 10068A   22174.76831737 -.00000223  00000+0  00000+0 0  9992
2 37256  50.2003 289.5739 0021740 185.2307 178.1650  1.00247940 42212
BEIDOU 8 (C08)          
1 37384U 11013A   22174.61525152 -.00000209  00000+0  00000+0 0  9994
2 37384  60.2973  54.1989 0018032 184.6950 359.9160  1.00254752 41089
BEIDOU 9 (C09)          
1 37763U 11038A   22174.96030345  .00000003  00000+0  00000+0 0  9996
2 37763  54.4767 178.6597 0098470 228.1814 306.4899  1.00277984 40065
BEIDOU 10 (C10)         
1 37948U 11073A   22174.78868813 -.00000180  00000+0  00000+0 0  9996
2 37948  50.3173 289.2120 0083525 217.8071 142.4077  1.00292308 38826
BEIDOU 11 (C05)         
1 38091U 12008A   22174.90287919  .00000059  00000+0  00000+0 0  9995
2 38091   1.5778  67.6429 0014785 340.1443 247.9446  1.00273425 37896
BEIDOU 12 (C11)         
1 38250U 12018A   22174.57957691 -.00000099  00000+0  00000+0 0  9992
2 38250  56.6970 353.3573 0020176 252.5658 105.3681  1.86234325 69194
BEIDOU 13 (C12)         
1 38251U 12018B   22174.59985447 -.00000100  00000+0  00000+0 0  9998
2 38251  56.6114 352.6800 0010927 254.9343 160.8118  1.86234151 69200
BEIDOU 15 (C14)         
1 38775U 12050B   22174.55672348 -.00000031  00000+0  00000+0 0  9997
2 38775  55.4040 111.4791 0015188 323.6806 259.3923  1.86231368 66570
BEIDOU 16 (C02)         
1 38953U 12059A   22175.05144929 -.00000174  00000+0  00000+0 0  9997
2 38953   2.0063  84.3711 0011310 302.9243 347.4704  1.00272332 35461
BEIDOU 17 (C31)         
1 40549U 15019A   22174.85396373 -.00000191  00000+0  00000+0 0  9998
2 40549  51.8780 312.6794 0036335 193.0650 166.0953  1.00295605 26498
BEIDOU 18 (C57)         
1 40748U 15037A   22174.47461199 -.00000102  00000+0  00000+0 0  9998
2 40748  55.8638 351.5477 0004876  45.5216 195.6638  1.86233333 47023
BEIDOU 19 (C58)         
1 40749U 15037B   22174.98972866 -.00000103  00000+0  00000+0 0  9994
2 40749  55.8642 351.5197 0003884   1.1723 359.8718  1.86232180 47030
BEIDOU 20 (C18)         
1 40938U 15053A   22174.73382602 -.00000160  00000+0  00000+0 0  9991
2 40938  51.4887 275.8022 0045291 196.4824 158.1078  1.00291448 24768
BEIDOU IGSO-6 (C13)     
1 41434U 16021A   22174.63382528 -.00000189  00000+0  00000+0 0  9996
2 41434  58.1076  52.7721 0043440 217.7553 325.3437  1.00281931 22897
BEIDOU-2 G7 (C03)       
1 41586U 16037A   22175.16352811 -.00000351  00000+0  00000+0 0  9993
2 41586   1.9967  69.8903 0008607   8.0355   3.6780  1.00266005 22205
BEIDOU-3 M1 (C19)       
1 43001U 17069A   22174.81090921 -.00000034  00000+0  00000+0 0  9993
2 43001  55.5557 111.4727 0011747 295.3556 254.4110  1.86231749 31518
BEIDOU-3 M2 (C20)       
1 43002U 17069B   22174.73294550 -.00000033  00000+0  00000+0 0  9998
2 43002  55.5563 111.5103 0010155 313.9673 226.5528  1.86231401 31501
BEIDOU-3 M3 (C27)       
1 43107U 18003A   22174.47880844 -.00000103  00000+0  00000+0 0  9999
2 43107  55.3156 352.4612 0005788  60.2875 115.9763  1.86232520 30263
BEIDOU-3 M4 (C28)       
1 43108U 18003B   22174.24492634 -.00000103  00000+0  00000+0 0  9991
2 43108  55.3071 352.4582 0001668 251.3199 171.9987  1.86230992 30262
BEIDOU-3 M5 (C21)       
1 43207U 18018A   22174.05857701 -.00000024  00000+0  00000+0 0  9998
2 43207  55.5176 111.6110 0007368 333.1286  26.7995  1.86231634 29641
BEIDOU-3 M6 (C22)       
1 43208U 18018B   22174.12521614 -.00000025  00000+0  00000+0 0  9999
2 43208  55.5156 111.6139 0009759 305.8722  54.0041  1.86231583 29647
BEIDOU-3 M7 (C29)       
1 43245U 18029A   22174.35118694 -.00000103  00000+0  00000+0 0  9994
2 43245  55.2269 350.2336 0001303  86.4937 274.6214  1.86232386 28808
BEIDOU-3 M8 (C30)       
1 43246U 18029B   22174.54552418 -.00000103  00000+0  10000-3 0  9997
2 43246  55.2241 350.2574 0004350  15.1904 162.7631  1.86232907 28798
BEIDOU IGSO-7 (C16)     
1 43539U 18057A   22174.95424822 -.00000040  00000+0  00000+0 0  9990
2 43539  55.0772 175.6433 0049583 227.7762 322.0035  1.00256277 14575
BEIDOU-3 M9 (C23)       
1 43581U 18062A   22174.61246435  .00000030  00000+0  00000+0 0  9996
2 43581  54.2725 231.8744 0004717 266.1398 167.7313  1.86231926 26544
BEIDOU-3 M10 (C24)      
1 43582U 18062B   22174.52825473  .00000029  00000+0  00000+0 0  9990
2 43582  54.2722 231.8680 0004164 349.4472 119.7383  1.86232144 26542
BEIDOU-3 M11 (C25)      
1 43602U 18067A   22174.85100299  .00000037  00000+0  00000+0 0  9995
2 43602  54.3558 230.4705 0006535   3.4558   3.5359  1.86231720 26049
BEIDOU-3 M12 (C26)      
1 43603U 18067B   22174.59655275  .00000034  00000+0  00000+0 0  9993
2 43603  54.3524 230.4456 0003836 347.3775 119.3910  1.86231683 26056
BEIDOU-3 M13 (C32)      
1 43622U 18072A   22175.23393192 -.00000040  00000+0  00000+0 0  9997
2 43622  55.4838 111.1265 0008361 293.2517 270.1095  1.86231829 25579
BEIDOU-3 M14 (C33)      
1 43623U 18072B   22174.54857938 -.00000032  00000+0  00000+0 0  9995
2 43623  55.4854 111.1413 0006423 312.6688 241.4308  1.86231814 25566
BEIDOU-3 M15 (C34)      
1 43647U 18078A   22174.67933152 -.00000104  00000+0  10000-3 0  9999
2 43647  55.1228 350.3812 0006726  15.7705 161.5393  1.86232599 25074
BEIDOU-3 M16 (C35)      
1 43648U 18078B   22174.51351373 -.00000104  00000+0  00000+0 0  9997
2 43648  55.1183 350.3937 0004943  29.1762 304.7457  1.86232249 25089
BEIDOU-3 G1 (C59)       
1 43683U 18085A   22174.84736307 -.00000275  00000+0  00000+0 0  9993
2 43683   0.8958 164.7283 0003612 342.5761 209.7572  1.00268784 13470
BEIDOU-3 M17 (C36)      
1 43706U 18093A   22174.16681286  .00000025  00000+0  00000+0 0  9990
2 43706  54.3552 231.7746 0010567 270.4952  89.4591  1.86232005 24441
BEIDOU-3 M18 (C37)      
1 43707U 18093B   22174.64587688  .00000031  00000+0  00000+0 0  9992
2 43707  54.3556 231.7497 0008350 295.0195 117.3504  1.86232253 24448
BEIDOU-3 IGSO-1 (C38)   
1 44204U 19023A   22175.05825230 -.00000245  00000+0  00000+0 0  9991
2 44204  56.5681  52.8993 0019306 197.9331 159.2450  1.00255448 11776
BEIDOU-2 G8             
1 44231U 19027A   22174.91997396 -.00000245  00000+0  00000+0 0  9992
2 44231   0.8749  76.2974 0004347 107.7896 203.7045  1.00271979 11497
BEIDOU-3 IGSO-2 (C39)   
1 44337U 19035A   22174.32251491 -.00000053  00000+0  00000+0 0  9999
2 44337  55.1199 171.6681 0023446 199.6936 132.3511  1.00250781 11108
BEIDOU-3 M23 (C45)      
1 44542U 19061A   22174.10271988  .00000024  00000+0  00000+0 0  9992
2 44542  54.5819 231.9201 0007888 326.3114  33.7136  1.86231338 18694
BEIDOU-3 M24 (C46)      
1 44543U 19061B   22175.10705363  .00000038  00000+0  00000+0 0  9998
2 44543  54.5801 231.8551 0005339 312.2687 272.4338  1.86231690 18700
BEIDOU-3 IGSO-3         
1 44709U 19073A   22174.73521662 -.00000224  00000+0  10000-3 0  9994
2 44709  57.2573 296.3183 0023010 174.8767 182.2956  1.00254716  9854
BEIDOU-3 M21            
1 44793U 19078A   22174.47688544 -.00000104  00000+0  10000-3 0  9993
2 44793  54.9714 350.4096 0006828  21.4384 334.0257  1.86232264 17558
BEIDOU-3 M22            
1 44794U 19078B   22174.88015637 -.00000105  00000+0  00000+0 0  9992
2 44794  54.9465 350.3862 0004788  22.1130 155.4059  1.86232773 17563
BEIDOU-3 M19            
1 44864U 19090A   22174.60850774 -.00000032  00000+0  00000+0 0  9992
2 44864  55.4176 111.3589 0018188 273.9759 275.8676  1.86231890 17144
BEIDOU-3 M20            
1 44865U 19090B   22174.52497946 -.00000031  00000+0  00000+0 0  9991
2 44865  55.4206 111.3924 0016635 287.1072 296.6032  1.86231887 17112
BEIDOU-3 G2             
1 45344U 20017A   22174.83541418 -.00000140  00000+0  00000+0 0  9994
2 45344   2.0613 352.4031 0004712 117.0085 183.3747  1.00272679  8676
BEIDOU-3 G3             
1 45807U 20040A   22175.05676959 -.00000349  00000+0  00000+0 0  9999
2 45807   1.4251 303.4180 0006258 328.9276 130.8593  1.00270503  7505
